$$SOE
2460735.500000000, A.D. 2025-Mar-01 00:00:00.0000, -1.171093591145676E+08, 4.418520254912426E+08, 2.742186690134269E+07,
2460742.500000000, A.D. 2025-Mar-08 00:00:00.0000, -1.270381925044727E+08, 4.390183821897813E+08, 2.525912831373850E+07,
2460749.500000000, A.D. 2025-Mar-15 00:00:00.0000, -1.369025442302304E+08, 4.359626926497849E+08, 2.308357934523305E+07,
2460756.500000000, A.D. 2025-Mar-22 00:00:00.0000, -1.466973353487117E+08, 4.326862253248699E+08, 2.089630915204445E+07,
2460763.500000000, A.D. 2025-Mar-29 00:00:00.0000, -1.564175172564805E+08, 4.291903813207814E+08, 1.869841643531299E+07,
2460770.500000000, A.D. 2025-Apr-05 00:00:00.0000, -1.660580747205863E+08, 4.254766929672313E+08, 1.649100852098852E+07,
2460777.500000000, A.D. 2025-Apr-12 00:00:00.0000, -1.756140291334696E+08, 4.215468232389531E+08, 1.427520052863723E+07,
2460784.500000000, A.D. 2025-Apr-19 00:00:00.0000, -1.850804421722959E+08, 4.174025651440291E+08, 1.205211457487085E+07,
2460791.500000000, A.D. 2025-Apr-26 00:00:00.0000, -1.944524195849654E+08, 4.130458408759578E+08, 9.822878970644832E+06,
2460798.500000000, A.D. 2025-May-03 00:00:00.0000, -2.037251149832789E+08, 4.084787007489849E+08, 7.588627404450685E+06,
2460805.500000000, A.D. 2025-May-10 00:00:00.0000, -2.128937336087868E+08, 4.037033219262791E+08, 5.350498110464483E+06,
2460812.500000000, A.D. 2025-May-17 00:00:00.0000, -2.219535360286421E+08, 3.987220069011701E+08, 3.109633015989184E+06,
2460819.500000000, A.D. 2025-May-24 00:00:00.0000, -2.308998415815725E+08, 3.935371816784466E+08, 8.671768489369750E+05,
2460826.500000000, A.D. 2025-May-31 00:00:00.0000, -2.397280311504286E+08, 3.881513939683239E+08, -1.375723806320250E+06,
2460833.500000000, A.D. 2025-Jun-07 00:00:00.0000, -2.484335496571639E+08, 3.825673126002766E+08, -3.617921368255049E+06,
2460840.500000000, A.D. 2025-Jun-14 00:00:00.0000, -2.570119106396460E+08, 3.767877274939394E+08, -5.858267869162291E+06,
2460847.500000000, A.D. 2025-Jun-21 00:00:00.0000, -2.654587016859725E+08, 3.708155469185642E+08, -8.095615695470452E+06,
2460854.500000000, A.D. 2025-Jun-28 00:00:00.0000, -2.737695875917654E+08, 3.646537938058264E+08, -1.032881859838679E+07,
2460861.500000000, A.D. 2025-Jul-05 00:00:00.0000, -2.819403127540152E+08, 3.583056032758999E+08, -1.255673265817411E+07,
2460868.500000000, A.D. 2025-Jul-12 00:00:00.0000, -2.899667039878007E+08, 3.517742205768369E+08, -1.477821715748957E+07,
2460875.500000000, A.D. 2025-Jul-19 00:00:00.0000, -2.978446735706158E+08, 3.450629988661832E+08, -1.699213542680384E+07,
2460882.500000000, A.D. 2025-Jul-26 00:00:00.0000, -3.055702222992771E+08, 3.381753967819113E+08, -1.919735568432382E+07,
2460889.500000000, A.D. 2025-Aug-02 00:00:00.0000, -3.131394424894688E+08, 3.311149758284020E+08, -2.139275187320247E+07,
2460896.500000000, A.D. 2025-Aug-09 00:00:00.0000, -3.205485208902376E+08, 3.238853975673602E+08, -2.357720449793433E+07,
2460903.500000000, A.D. 2025-Aug-16 00:00:00.0000, -3.277937414324342E+08, 3.164904205552357E+08, -2.574960147070420E+07,
2460910.500000000, A.D. 2025-Aug-23 00:00:00.0000, -3.348714875146487E+08, 3.089338970485504E+08, -2.790883899169599E+07,
2460917.500000000, A.D. 2025-Aug-30 00:00:00.0000, -3.417782434943343E+08, 3.012197701960556E+08, -3.005382243370086E+07,
2460924.500000000, A.D. 2025-Sep-06 00:00:00.0000, -3.485105968001125E+08, 2.933520727234180E+08, -3.218346701794507E+07,
2460931.500000000, A.D. 2025-Sep-13 00:00:00.0000, -3.550652423342816E+08, 2.853349246347131E+08, -3.429669832990383E+07,
2460938.500000000, A.D. 2025-Sep-20 00:00:00.0000, -3.614389858879609E+08, 2.771725282928065E+08, -3.639245310836218E+07,
2460945.500000000, A.D. 2025-Sep-27 00:00:00.0000, -3.676287455064421E+08, 2.688691639942097E+08, -3.846968014882687E+07,
2460952.500000000, A.D. 2025-Oct-04 00:00:00.0000, -3.736315528204533E+08, 2.604291865835353E+08, -4.052734109132310E+07,
2460959.500000000, A.D. 2025-Oct-11 00:00:00.0000, -3.794445547146905E+08, 2.518570221719146E+08, -4.256441113451017E+07,
2460966.500000000, A.D. 2025-Oct-18 00:00:00.0000, -3.850650150462176E+08, 2.431571646907909E+08, -4.457987972316336E+07,
2460973.500000000, A.D. 2025-Oct-25 00:00:00.0000, -3.904903162703213E+08, 2.343341722965321E+08, -4.657275121936822E+07,
2460980.500000000, A.D. 2025-Nov-01 00:00:00.0000, -3.957179609334767E+08, 2.253926636456918E+08, -4.854204555855034E+07,
2460987.500000000, A.D. 2025-Nov-08 00:00:00.0000, -4.007455729997482E+08, 2.163373140148616E+08, -5.048679889543725E+07,
2460994.500000000, A.D. 2025-Nov-15 00:00:00.0000, -4.055708988643180E+08, 2.071728512132602E+08, -5.240606425816195E+07,
2461001.500000000, A.D. 2025-Nov-22 00:00:00.0000, -4.101918076525599E+08, 1.979040515155762E+08, -5.429891222946121E+07,
2461008.500000000, A.D. 2025-Nov-29 00:00:00.0000, -4.146062909583691E+08, 1.885357367571354E+08, -5.616443154805194E+07,
2461015.500000000, A.D. 2025-Dec-06 00:00:00.0000, -4.188124643003131E+08, 1.790727724620404E+08, -5.800172943242036E+07,
2461022.500000000, A.D. 2025-Dec-13 00:00:00.0000, -4.228085698633977E+08, 1.695200636413816E+08, -5.980993194237243E+07,
2461029.500000000, A.D. 2025-Dec-20 00:00:00.0000, -4.265929770322322E+08, 1.598825492913948E+08, -6.158818461437148E+07,
2461036.500000000, A.D. 2025-Dec-27 00:00:00.0000, -4.301641817886772E+08, 1.501651981870299E+08, -6.333565305928598E+07,
2461043.500000000, A.D. 2026-Jan-03 00:00:00.0000, -4.335208064356710E+08, 1.403730053600783E+08, -6.505152343885305E+07,
2461050.500000000, A.D. 2026-Jan-10 00:00:00.0000, -4.366615995403077E+08, 1.305109885892828E+08, -6.673500288650358E+07,
2461057.500000000, A.D. 2026-Jan-17 00:00:00.0000, -4.395854358656253E+08, 1.205841848171655E+08, -6.838531990115871E+07,
2461064.500000000, A.D. 2026-Jan-24 00:00:00.0000, -4.422913162151961E+08, 1.105976465220573E+08, -7.000172471899949E+07,
2461071.500000000, A.D. 2026-Jan-31 00:00:00.0000, -4.447783671694642E+08, 1.005564380435278E+08, -7.158348966576883E+07,
2461078.500000000, A.D. 2026-Feb-07 00:00:00.0000, -4.470458406550149E+08, 9.046563180941658E+07, -7.312990949982968E+07,
2461085.500000000, A.D. 2026-Feb-14 00:00:00.0000, -4.490931130965143E+08, 8.033030445462342E+07, -7.464030177038202E+07,
2461092.500000000, A.D. 2026-Feb-21 00:00:00.0000, -4.509196837664371E+08, 7.015553341388384E+07, -7.611400717912182E+07,
2461099.500000000, A.D. 2026-Feb-28 00:00:00.0000, -4.525251734201478E+08, 5.994639514651521E+07, -7.755038975148505E+07,
2461106.500000000, A.D. 2026-Mar-07 00:00:00.0000, -4.539093252787150E+08, 4.970796304713115E+07, -7.894883678834637E+07,
2461113.500000000, A.D. 2026-Mar-14 00:00:00.0000, -4.550720055879831E+08, 3.944530271432401E+07, -8.030875904385716E+07,
2461120.500000000, A.D. 2026-Mar-21 00:00:00.0000, -4.560132019728538E+08, 2.916346747980241E+07, -8.162959105556698E+07,
2461127.500000000, A.D. 2026-Mar-28 00:00:00.0000, -4.567330215976889E+08, 1.886749522879973E+07, -8.291079135768555E+07,
2461134.500000000, A.D. 2026-Apr-04 00:00:00.0000, -4.572316897405112E+08, 8.562405547504436E+06, -8.415184260121582E+07,
2461141.500000000, A.D. 2026-Apr-11 00:00:00.0000, -4.575095485120624E+08, -1.746803160240754E+06, -8.535225163613716E+07,
2461148.500000000, A.D. 2026-Apr-18 00:00:00.0000, -4.575670555650290E+08, -1.205515659115082E+07, -8.651154957134081E+07,
2461155.500000000, A.D. 2026-Apr-25 00:00:00.0000, -4.574047827518716E+08, -2.235770747857320E+07, -8.762929181581943E+07,
2461162.500000000, A.D. 2026-May-02 00:00:00.0000, -4.570234147046587E+08, -3.264953857388228E+07, -8.870505810691176E+07,
2461169.500000000, A.D. 2026-May-09 00:00:00.0000, -4.564237472164268E+08, -4.292576573733893E+07, -8.973845254304031E+07,
2461176.500000000, A.D. 2026-May-16 00:00:00.0000, -4.556066850499374E+08, -5.318154099813469E+07, -9.072910364491004E+07,
2461183.500000000, A.D. 2026-May-23 00:00:00.0000, -4.545732391256831E+08, -6.341205455952333E+07, -9.167666436691254E+07,
2461190.500000000, A.D. 2026-May-30 00:00:00.0000, -4.533245251712640E+08, -7.361253542836514E+07, -9.258081184266405E+07,
2461197.500000000, A.D. 2026-Jun-06 00:00:00.0000, -4.518617641543391E+08, -8.377825394186422E+07, -9.344124710434650E+07,
2461204.500000000, A.D. 2026-Jun-13 00:00:00.0000, -4.501862808383852E+08, -9.390452599058160E+07, -9.425769509703806E+07,
2461211.500000000, A.D. 2026-Jun-20 00:00:00.0000, -4.482995009650529E+08, -1.039867160089729E+08, -9.502990470302281E+07,
2461218.500000000, A.D. 2026-Jun-27 00:00:00.0000, -4.462029487628260E+08, -1.140202390722494E+08, -9.575764864771432E+07,
2461225.500000000, A.D. 2026-Jul-04 00:00:00.0000, -4.438982447842747E+08, -1.240005628749835E+08, -9.644072335072696E+07,
2461232.500000000, A.D. 2026-Jul-11 00:00:00.0000, -4.413871038212881E+08, -1.339232097244644E+08, -9.707894875699697E+07,
2461239.500000000, A.D. 2026-Jul-18 00:00:00.0000, -4.386713328096337E+08, -1.437837585242773E+08, -9.767216815561603E+07,
2461246.500000000, A.D. 2026-Jul-25 00:00:00.0000, -4.357528287030273E+08, -1.535778467464068E+08, -9.822024798995191E+07,
2461253.500000000, A.D. 2026-Aug-01 00:00:00.0000, -4.326335762734500E+08, -1.633011724405229E+08, -9.872307766898282E+07,
2461260.500000000, A.D. 2026-Aug-08 00:00:00.0000, -4.293156456273397E+08, -1.729494963163815E+08, -9.918056940378180E+07,
2461267.500000000, A.D. 2026-Aug-15 00:00:00.0000, -4.258011890264377E+08, -1.825186434487667E+08, -9.959265807126872E+07,
2461274.500000000, A.D. 2026-Aug-22 00:00:00.0000, -4.220924377772605E+08, -1.920045033836316E+08, -9.995930093606421E+07,
2461281.500000000, A.D. 2026-Aug-29 00:00:00.0000, -4.181917014808190E+08, -2.014030300189513E+08, -1.002804771331309E+08,
2461288.500000000, A.D. 2026-Sep-05 00:00:00.0000, -4.141013675125101E+08, -2.107102441299895E+08, -1.005561873422567E+08,
2461295.500000000, A.D. 2026-Sep-12 00:00:00.0000, -4.098238982811984E+08, -2.199222360441617E+08, -1.007864536764694E+08,
$$EOE